[Satellite]
VERSION=1.1
NAME=GLOBALSTAR M004
NICKNAME=GLOBALSTAR M004
TLE1=1 25163U 98008B   15055.23915998 -.00000104  00000-0 -25070-5 0  9990
TLE2=2 25163  52.0016  21.3064 0002828 222.8729 244.4733 12.63231490785807
